STARLINK-31674          
1 59517U 24073G   26068.08147949 -.00002261  00000+0 -72693-4 0  9990
2 59517  43.0001 321.3705 0000609 273.7961  86.2821 15.27569136106085
FLOCK 4G-6              
1 62660U 25009BD  26068.71061311  .00012261  00000+0  45910-3 0  9991
2 62660  97.3980 150.7943 0002380 348.2637  11.8546 15.27432125121307
